{"type": "FeatureCollection", "features": [{"type": "Feature", "geometry": {"type": "Point", "coordinates": [114.1651, 22.2793]}, "properties": {"code": "ADM", "name": "Admiralty", "name_zh": "\u91d1\u9418"}}, {"type": "Feature", "geometry": {"type": "Point", "coordinates": [113.9367, 22.3159]}, "properties": {"code": "AIR", "name": "Airport", "name_zh": "\u6a5f\u5834"}}, {"type": "Feature", "geometry": {"type": "Point", "coordinates": [114.1665, 22.3033]}, "properties": {"code": "AUS", "name": "Austin", "name_zh": "\u67ef\u58eb\u7538"}}, {"type": "Feature", "geometry": {"type": "Point", "coordinates": [113.9401, 22.3228]}, "properties": {"code": "AWE", "name": "AsiaWorld-Expo", "name_zh": "\u535a\u89bd\u9928"}}, {"type": "Feature", "geometry": {"type": "Point", "coordinates": [114.184, 22.28]}, "properties": {"code": "CAB", "name": "Causeway Bay", "name_zh": "\u9285\u947c\u7063"}}, {"type": "Feature", "geometry": {"type": "Point", "coordinates": [114.1576, 22.282]}, "properties": {"code": "CEN", "name": "Central", "name_zh": "\u4e2d\u74b0"}}, {"type": "Feature", "geometry": {"type": "Point", "coordinates": [114.2137, 22.3354]}, "properties": {"code": "CHH", "name": "Choi Hung", "name_zh": "\u5f69\u8679"}}, {"type": "Feature", "geometry": {"type": "Point", "coordinates": [114.237, 22.2647]}, "properties": {"code": "CHW", "name": "Chai Wan", "name_zh": "\u67f4\u7063"}}, {"type": "Feature", "geometry": {"type": "Point", "coordinates": [114.2054, 22.3983]}, "properties": {"code": "CIO", "name": "City One", "name_zh": "\u7b2c\u4e00\u57ce"}}, {"type": "Feature", "geometry": {"type": "Point", "coordinates": [114.1873, 22.379]}, "properties": {"code": "CKT", "name": "Che Kung Temple", "name_zh": "\u8eca\u516c\u5edf"}}, {"type": "Feature", "geometry": {"type": "Point", "coordinates": [114.1561, 22.3355]}, "properties": {"code": "CSW", "name": "Cheung Sha Wan", "name_zh": "\u9577\u6c99\u7063"}}, {"type": "Feature", "geometry": {"type": "Point", "coordinates": [114.2071, 22.3404]}, "properties": {"code": "DIH", "name": "Diamond Hill", "name_zh": "\u947d\u77f3\u5c71"}}, {"type": "Feature", "geometry": {"type": "Point", "coordinates": [114.0447, 22.3131]}, "properties": {"code": "DIS", "name": "Disneyland Resort", "name_zh": "\u8fea\u58eb\u5c3c"}}, {"type": "Feature", "geometry": {"type": "Point", "coordinates": [114.1756, 22.2983]}, "properties": {"code": "ETS", "name": "East Tsim Sha Tsui", "name_zh": "\u5c16\u6771"}}, {"type": "Feature", "geometry": {"type": "Point", "coordinates": [114.1743, 22.2809]}, "properties": {"code": "EXC", "name": "Exhibition Centre", "name_zh": "\u6703\u5c55"}}, {"type": "Feature", "geometry": {"type": "Point", "coordinates": [114.1388, 22.492]}, "properties": {"code": "FAN", "name": "Fanling", "name_zh": "\u7c89\u5dba"}}, {"type": "Feature", "geometry": {"type": "Point", "coordinates": [114.1942, 22.2872]}, "properties": {"code": "FOH", "name": "Fortress Hill", "name_zh": "\u70ae\u53f0\u5c71"}}, {"type": "Feature", "geometry": {"type": "Point", "coordinates": [114.198, 22.3959]}, "properties": {"code": "FOT", "name": "Fo Tan", "name_zh": "\u706b\u70ad"}}, {"type": "Feature", "geometry": {"type": "Point", "coordinates": [114.2644, 22.317]}, "properties": {"code": "HAH", "name": "Hang Hau", "name_zh": "\u5751\u53e3"}}, {"type": "Feature", "geometry": {"type": "Point", "coordinates": [114.2311, 22.4175]}, "properties": {"code": "HEO", "name": "Heng On", "name_zh": "\u6046\u5b89"}}, {"type": "Feature", "geometry": {"type": "Point", "coordinates": [114.2416, 22.274]}, "properties": {"code": "HFC", "name": "Heng Fa Chuen", "name_zh": "\u674f\u82b1\u90a8"}}, {"type": "Feature", "geometry": {"type": "Point", "coordinates": [114.187, 22.353]}, "properties": {"code": "HIK", "name": "Hin Keng", "name_zh": "\u986f\u5f91"}}, {"type": "Feature", "geometry": {"type": "Point", "coordinates": [114.1352, 22.2841]}, "properties": {"code": "HKU", "name": "HKU", "name_zh": "\u9999\u6e2f\u5927\u5b78"}}, {"type": "Feature", "geometry": {"type": "Point", "coordinates": [114.1582, 22.2851]}, "properties": {"code": "HOK", "name": "Hong Kong", "name_zh": "\u9999\u6e2f"}}, {"type": "Feature", "geometry": {"type": "Point", "coordinates": [114.1837, 22.3097]}, "properties": {"code": "HOM", "name": "Ho Man Tin", "name_zh": "\u4f55\u6587\u7530"}}, {"type": "Feature", "geometry": {"type": "Point", "coordinates": [114.1823, 22.3029]}, "properties": {"code": "HUH", "name": "Hung Hom", "name_zh": "\u7d05\u78e1"}}, {"type": "Feature", "geometry": {"type": "Point", "coordinates": [114.1716, 22.305]}, "properties": {"code": "JOR", "name": "Jordan", "name_zh": "\u4f50\u6566"}}, {"type": "Feature", "geometry": {"type": "Point", "coordinates": [114.2039, 22.329]}, "properties": {"code": "KAT", "name": "Kai Tak", "name_zh": "\u555f\u5fb7"}}, {"type": "Feature", "geometry": {"type": "Point", "coordinates": [114.1287, 22.2811]}, "properties": {"code": "KET", "name": "Kennedy Town", "name_zh": "\u5805\u5c3c\u5730\u57ce"}}, {"type": "Feature", "geometry": {"type": "Point", "coordinates": [114.2137, 22.3234]}, "properties": {"code": "KOB", "name": "Kowloon Bay", "name_zh": "\u4e5d\u9f8d\u7063"}}, {"type": "Feature", "geometry": {"type": "Point", "coordinates": [114.1762, 22.3364]}, "properties": {"code": "KOT", "name": "Kowloon Tong", "name_zh": "\u4e5d\u9f8d\u5858"}}, {"type": "Feature", "geometry": {"type": "Point", "coordinates": [114.1614, 22.3048]}, "properties": {"code": "KOW", "name": "Kowloon", "name_zh": "\u4e5d\u9f8d"}}, {"type": "Feature", "geometry": {"type": "Point", "coordinates": [114.0637, 22.4296]}, "properties": {"code": "KSR", "name": "Kam Sheung Road", "name_zh": "\u9326\u4e0a\u8def"}}, {"type": "Feature", "geometry": {"type": "Point", "coordinates": [114.1232, 22.3594]}, "properties": {"code": "KWF", "name": "Kwai Fong", "name_zh": "\u8475\u82b3"}}, {"type": "Feature", "geometry": {"type": "Point", "coordinates": [114.131, 22.3635]}, "properties": {"code": "KWH", "name": "Kwai Hing", "name_zh": "\u8475\u8208"}}, {"type": "Feature", "geometry": {"type": "Point", "coordinates": [114.2267, 22.3117]}, "properties": {"code": "KWT", "name": "Kwun Tong", "name_zh": "\u89c0\u5858"}}, {"type": "Feature", "geometry": {"type": "Point", "coordinates": [114.1254, 22.3718]}, "properties": {"code": "LAK", "name": "Lai King", "name_zh": "\u8318\u666f"}}, {"type": "Feature", "geometry": {"type": "Point", "coordinates": [114.2328, 22.3085]}, "properties": {"code": "LAT", "name": "Lam Tin", "name_zh": "\u85cd\u7530"}}, {"type": "Feature", "geometry": {"type": "Point", "coordinates": [114.1483, 22.3378]}, "properties": {"code": "LCK", "name": "Lai Chi Kok", "name_zh": "\u8318\u679d\u89d2"}}, {"type": "Feature", "geometry": {"type": "Point", "coordinates": [114.1551, 22.2417]}, "properties": {"code": "LET", "name": "Lei Tung", "name_zh": "\u5229\u6771"}}, {"type": "Feature", "geometry": {"type": "Point", "coordinates": [114.2731, 22.2958]}, "properties": {"code": "LHP", "name": "LOHAS Park", "name_zh": "\u5eb7\u57ce"}}, {"type": "Feature", "geometry": {"type": "Point", "coordinates": [114.0697, 22.5299]}, "properties": {"code": "LMC", "name": "Lok Ma Chau", "name_zh": "\u843d\u99ac\u6d32"}}, {"type": "Feature", "geometry": {"type": "Point", "coordinates": [114.1873, 22.3396]}, "properties": {"code": "LOF", "name": "Lok Fu", "name_zh": "\u6a02\u5bcc"}}, {"type": "Feature", "geometry": {"type": "Point", "coordinates": [114.0341, 22.4468]}, "properties": {"code": "LOP", "name": "Long Ping", "name_zh": "\u6717\u5c4f"}}, {"type": "Feature", "geometry": {"type": "Point", "coordinates": [114.1124, 22.5276]}, "properties": {"code": "LOW", "name": "Lo Wu", "name_zh": "\u7f85\u6e56"}}, {"type": "Feature", "geometry": {"type": "Point", "coordinates": [114.1376, 22.3381]}, "properties": {"code": "MEF", "name": "Mei Foo", "name_zh": "\u7f8e\u5b5a"}}, {"type": "Feature", "geometry": {"type": "Point", "coordinates": [114.1877, 22.3225]}, "properties": {"code": "MKK", "name": "Mong Kok East", "name_zh": "\u65fa\u89d2\u6771"}}, {"type": "Feature", "geometry": {"type": "Point", "coordinates": [114.1695, 22.3193]}, "properties": {"code": "MOK", "name": "Mong Kok", "name_zh": "\u65fa\u89d2"}}, {"type": "Feature", "geometry": {"type": "Point", "coordinates": [114.2313, 22.4253]}, "properties": {"code": "MOS", "name": "Ma On Shan", "name_zh": "\u99ac\u978d\u5c71"}}, {"type": "Feature", "geometry": {"type": "Point", "coordinates": [114.1545, 22.3274]}, "properties": {"code": "NAC", "name": "Nam Cheong", "name_zh": "\u5357\u660c"}}, {"type": "Feature", "geometry": {"type": "Point", "coordinates": [114.2002, 22.2907]}, "properties": {"code": "NOP", "name": "North Point", "name_zh": "\u5317\u89d2"}}, {"type": "Feature", "geometry": {"type": "Point", "coordinates": [114.2197, 22.3153]}, "properties": {"code": "NTK", "name": "Ngau Tau Kok", "name_zh": "\u725b\u982d\u89d2"}}, {"type": "Feature", "geometry": {"type": "Point", "coordinates": [114.1747, 22.2481]}, "properties": {"code": "OCP", "name": "Ocean Park", "name_zh": "\u6d77\u6d0b\u516c\u5712"}}, {"type": "Feature", "geometry": {"type": "Point", "coordinates": [114.1599, 22.3183]}, "properties": {"code": "OLY", "name": "Olympic", "name_zh": "\u5967\u904b"}}, {"type": "Feature", "geometry": {"type": "Point", "coordinates": [114.2578, 22.3226]}, "properties": {"code": "POA", "name": "Po Lam", "name_zh": "\u5bf6\u7433"}}, {"type": "Feature", "geometry": {"type": "Point", "coordinates": [114.1681, 22.3245]}, "properties": {"code": "PRE", "name": "Prince Edward", "name_zh": "\u592a\u5b50"}}, {"type": "Feature", "geometry": {"type": "Point", "coordinates": [114.2098, 22.2881]}, "properties": {"code": "QUB", "name": "Quarry Bay", "name_zh": "\u9c02\u9b5a\u6d8c"}}, {"type": "Feature", "geometry": {"type": "Point", "coordinates": [114.2231, 22.4055]}, "properties": {"code": "SHM", "name": "Shek Mun", "name_zh": "\u77f3\u9580"}}, {"type": "Feature", "geometry": {"type": "Point", "coordinates": [114.1283, 22.5013]}, "properties": {"code": "SHS", "name": "Sheung Shui", "name_zh": "\u4e0a\u6c34"}}, {"type": "Feature", "geometry": {"type": "Point", "coordinates": [114.1871, 22.3817]}, "properties": {"code": "SHT", "name": "Sha Tin", "name_zh": "\u6c99\u7530"}}, {"type": "Feature", "geometry": {"type": "Point", "coordinates": [114.1509, 22.287]}, "properties": {"code": "SHW", "name": "Sheung Wan", "name_zh": "\u4e0a\u74b0"}}, {"type": "Feature", "geometry": {"type": "Point", "coordinates": [113.9843, 22.4088]}, "properties": {"code": "SIH", "name": "Siu Hong", "name_zh": "\u5146\u5eb7"}}, {"type": "Feature", "geometry": {"type": "Point", "coordinates": [114.168, 22.3319]}, "properties": {"code": "SKM", "name": "Shek Kip Mei", "name_zh": "\u77f3\u7864\u5c3e"}}, {"type": "Feature", "geometry": {"type": "Point", "coordinates": [114.2295, 22.2795]}, "properties": {"code": "SKW", "name": "Shau Kei Wan", "name_zh": "\u7b72\u7b95\u7063"}}, {"type": "Feature", "geometry": {"type": "Point", "coordinates": [114.1498, 22.2387]}, "properties": {"code": "SOH", "name": "South Horizons", "name_zh": "\u6d77\u6021\u534a\u5cf6"}}, {"type": "Feature", "geometry": {"type": "Point", "coordinates": [114.162, 22.3305]}, "properties": {"code": "SSP", "name": "Sham Shui Po", "name_zh": "\u6df1\u6c34\u57d7"}}, {"type": "Feature", "geometry": {"type": "Point", "coordinates": [114.1921, 22.3834]}, "properties": {"code": "STW", "name": "Sha Tin Wai", "name_zh": "\u6c99\u7530\u570d"}}, {"type": "Feature", "geometry": {"type": "Point", "coordinates": [114.03, 22.3375]}, "properties": {"code": "SUN", "name": "Sunny Bay", "name_zh": "\u6b23\u6fb3"}}, {"type": "Feature", "geometry": {"type": "Point", "coordinates": [114.1986, 22.3226]}, "properties": {"code": "SUW", "name": "Sung Wong Toi", "name_zh": "\u5b8b\u7687\u81fa"}}, {"type": "Feature", "geometry": {"type": "Point", "coordinates": [114.2228, 22.2825]}, "properties": {"code": "SWH", "name": "Sai Wan Ho", "name_zh": "\u897f\u7063\u6cb3"}}, {"type": "Feature", "geometry": {"type": "Point", "coordinates": [114.1424, 22.286]}, "properties": {"code": "SYP", "name": "Sai Ying Pun", "name_zh": "\u897f\u71df\u76e4"}}, {"type": "Feature", "geometry": {"type": "Point", "coordinates": [114.216, 22.2848]}, "properties": {"code": "TAK", "name": "Tai Koo", "name_zh": "\u592a\u53e4"}}, {"type": "Feature", "geometry": {"type": "Point", "coordinates": [114.1715, 22.4444]}, "properties": {"code": "TAP", "name": "Tai Po Market", "name_zh": "\u5927\u57d4\u589f"}}, {"type": "Feature", "geometry": {"type": "Point", "coordinates": [114.1797, 22.3726]}, "properties": {"code": "TAW", "name": "Tai Wai", "name_zh": "\u5927\u570d"}}, {"type": "Feature", "geometry": {"type": "Point", "coordinates": [114.192, 22.2824]}, "properties": {"code": "TIH", "name": "Tin Hau", "name_zh": "\u5929\u540e"}}, {"type": "Feature", "geometry": {"type": "Point", "coordinates": [114.2538, 22.3041]}, "properties": {"code": "TIK", "name": "Tiu Keng Leng", "name_zh": "\u8abf\u666f\u5dba"}}, {"type": "Feature", "geometry": {"type": "Point", "coordinates": [114.0013, 22.459]}, "properties": {"code": "TIS", "name": "Tin Shui Wai", "name_zh": "\u5929\u6c34\u570d"}}, {"type": "Feature", "geometry": {"type": "Point", "coordinates": [114.2604, 22.3072]}, "properties": {"code": "TKO", "name": "Tseung Kwan O", "name_zh": "\u5c07\u8ecd\u6fb3"}}, {"type": "Feature", "geometry": {"type": "Point", "coordinates": [114.19, 22.3183]}, "properties": {"code": "TKW", "name": "To Kwa Wan", "name_zh": "\u571f\u74dc\u7063"}}, {"type": "Feature", "geometry": {"type": "Point", "coordinates": [114.2523, 22.419]}, "properties": {"code": "TSH", "name": "Tai Shui Hang", "name_zh": "\u5927\u6c34\u5751"}}, {"type": "Feature", "geometry": {"type": "Point", "coordinates": [114.1722, 22.2973]}, "properties": {"code": "TST", "name": "Tsim Sha Tsui", "name_zh": "\u5c16\u6c99\u5480"}}, {"type": "Feature", "geometry": {"type": "Point", "coordinates": [114.1196, 22.3729]}, "properties": {"code": "TSW", "name": "Tsuen Wan", "name_zh": "\u8343\u7063"}}, {"type": "Feature", "geometry": {"type": "Point", "coordinates": [114.1088, 22.3588]}, "properties": {"code": "TSY", "name": "Tsing Yi", "name_zh": "\u9752\u8863"}}, {"type": "Feature", "geometry": {"type": "Point", "coordinates": [113.9416, 22.2889]}, "properties": {"code": "TUC", "name": "Tung Chung", "name_zh": "\u6771\u6d8c"}}, {"type": "Feature", "geometry": {"type": "Point", "coordinates": [113.9732, 22.3955]}, "properties": {"code": "TUM", "name": "Tuen Mun", "name_zh": "\u5c6f\u9580"}}, {"type": "Feature", "geometry": {"type": "Point", "coordinates": [114.1204, 22.3683]}, "properties": {"code": "TWH", "name": "Tai Wo Hau", "name_zh": "\u5927\u7aa9\u53e3"}}, {"type": "Feature", "geometry": {"type": "Point", "coordinates": [114.1635, 22.4509]}, "properties": {"code": "TWO", "name": "Tai Wo", "name_zh": "\u592a\u548c"}}, {"type": "Feature", "geometry": {"type": "Point", "coordinates": [114.1086, 22.3671]}, "properties": {"code": "TWW", "name": "Tsuen Wan West", "name_zh": "\u8343\u7063\u897f"}}, {"type": "Feature", "geometry": {"type": "Point", "coordinates": [114.21, 22.4134]}, "properties": {"code": "UNI", "name": "University", "name_zh": "\u5927\u5b78"}}, {"type": "Feature", "geometry": {"type": "Point", "coordinates": [114.1731, 22.2775]}, "properties": {"code": "WAC", "name": "Wan Chai", "name_zh": "\u7063\u4ed4"}}, {"type": "Feature", "geometry": {"type": "Point", "coordinates": [114.1697, 22.2464]}, "properties": {"code": "WCH", "name": "Wong Chuk Hang", "name_zh": "\u9ec3\u7af9\u5751"}}, {"type": "Feature", "geometry": {"type": "Point", "coordinates": [114.1898, 22.3042]}, "properties": {"code": "WHA", "name": "Whampoa", "name_zh": "\u9ec3\u57d4"}}, {"type": "Feature", "geometry": {"type": "Point", "coordinates": [114.2783, 22.4292]}, "properties": {"code": "WKS", "name": "Wu Kai Sha", "name_zh": "\u70cf\u6eaa\u6c99"}}, {"type": "Feature", "geometry": {"type": "Point", "coordinates": [114.1955, 22.3417]}, "properties": {"code": "WTS", "name": "Wong Tai Sin", "name_zh": "\u9ec3\u5927\u4ed9"}}, {"type": "Feature", "geometry": {"type": "Point", "coordinates": [114.2377, 22.2963]}, "properties": {"code": "YAT", "name": "Yau Tong", "name_zh": "\u6cb9\u5858"}}, {"type": "Feature", "geometry": {"type": "Point", "coordinates": [114.1705, 22.3129]}, "properties": {"code": "YMT", "name": "Yau Ma Tei", "name_zh": "\u6cb9\u9ebb\u5730"}}, {"type": "Feature", "geometry": {"type": "Point", "coordinates": [114.0231, 22.4453]}, "properties": {"code": "YUL", "name": "Yuen Long", "name_zh": "\u5143\u6717"}}]}