{"type": "FeatureCollection", "features": [{"type": "Feature", "geometry": {"type": "LineString", "coordinates": [[113.9401, 22.3228], [113.9367, 22.3159], [114.1088, 22.3588], [114.1614, 22.3048], [114.1582, 22.2851]]}, "properties": {"line_code": "AEL", "direction": "DT", "name": "Airport Express", "color": "#1C7CBF"}}, {"type": "Feature", "geometry": {"type": "LineString", "coordinates": [[114.03, 22.3375], [114.0447, 22.3131]]}, "properties": {"line_code": "DRL", "direction": "DT", "name": "Disneyland Resort Line", "color": "#EA0070"}}, {"type": "Feature", "geometry": {"type": "LineString", "coordinates": [[114.1124, 22.5276], [114.1283, 22.5013], [114.1388, 22.492], [114.1635, 22.4509], [114.1715, 22.4444], [114.21, 22.4134], [114.198, 22.3959], [114.1871, 22.3817], [114.1797, 22.3726], [114.1762, 22.3364], [114.1877, 22.3225], [114.1823, 22.3029], [114.1743, 22.2809], [114.1651, 22.2793]]}, "properties": {"line_code": "EAL", "direction": "DT", "name": "East Rail Line", "color": "#53B7E8"}}, {"type": "Feature", "geometry": {"type": "LineString", "coordinates": [[114.0697, 22.5299], [114.1283, 22.5013], [114.1388, 22.492], [114.1635, 22.4509], [114.1715, 22.4444], [114.21, 22.4134], [114.198, 22.3959], [114.1871, 22.3817], [114.1797, 22.3726], [114.1762, 22.3364], [114.1877, 22.3225], [114.1823, 22.3029], [114.1743, 22.2809], [114.1651, 22.2793]]}, "properties": {"line_code": "EAL", "direction": "LMC-DT", "name": "East Rail Line", "color": "#53B7E8"}}, {"type": "Feature", "geometry": {"type": "LineString", "coordinates": [[114.237, 22.2647], [114.2416, 22.274], [114.2295, 22.2795], [114.2228, 22.2825], [114.216, 22.2848], [114.2098, 22.2881], [114.2002, 22.2907], [114.1942, 22.2872], [114.192, 22.2824], [114.184, 22.28], [114.1731, 22.2775], [114.1651, 22.2793], [114.1576, 22.282], [114.1509, 22.287], [114.1424, 22.286], [114.1352, 22.2841], [114.1287, 22.2811]]}, "properties": {"line_code": "ISL", "direction": "DT", "name": "Island Line", "color": "#007B5E"}}, {"type": "Feature", "geometry": {"type": "LineString", "coordinates": [[114.2538, 22.3041], [114.2377, 22.2963], [114.2328, 22.3085], [114.2267, 22.3117], [114.2197, 22.3153], [114.2137, 22.3234], [114.2137, 22.3354], [114.2071, 22.3404], [114.1955, 22.3417], [114.1873, 22.3396], [114.1762, 22.3364], [114.168, 22.3319], [114.1681, 22.3245], [114.1695, 22.3193], [114.1705, 22.3129], [114.1837, 22.3097], [114.1898, 22.3042]]}, "properties": {"line_code": "KTL", "direction": "DT", "name": "Kwun Tong Line", "color": "#00A040"}}, {"type": "Feature", "geometry": {"type": "LineString", "coordinates": [[114.1498, 22.2387], [114.1551, 22.2417], [114.1697, 22.2464], [114.1747, 22.2481], [114.1651, 22.2793]]}, "properties": {"line_code": "SIL", "direction": "DT", "name": "South Island Line", "color": "#CBD300"}}, {"type": "Feature", "geometry": {"type": "LineString", "coordinates": [[113.9416, 22.2889], [114.03, 22.3375], [114.1088, 22.3588], [114.1254, 22.3718], [114.1545, 22.3274], [114.1599, 22.3183], [114.1614, 22.3048], [114.1582, 22.2851]]}, "properties": {"line_code": "TCL", "direction": "DT", "name": "Tung Chung Line", "color": "#F7943E"}}, {"type": "Feature", "geometry": {"type": "LineString", "coordinates": [[114.2578, 22.3226], [114.2644, 22.317], [114.2604, 22.3072], [114.2538, 22.3041], [114.2377, 22.2963], [114.2098, 22.2881], [114.2002, 22.2907]]}, "properties": {"line_code": "TKL", "direction": "DT", "name": "Tseung Kwan O Line", "color": "#6B208B"}}, {"type": "Feature", "geometry": {"type": "LineString", "coordinates": [[114.2731, 22.2958], [114.2604, 22.3072], [114.2538, 22.3041]]}, "properties": {"line_code": "TKL", "direction": "TKS-DT", "name": "Tseung Kwan O Line", "color": "#6B208B"}}, {"type": "Feature", "geometry": {"type": "LineString", "coordinates": [[113.9732, 22.3955], [113.9843, 22.4088], [114.0013, 22.459], [114.0341, 22.4468], [114.0231, 22.4453], [114.0637, 22.4296], [114.1086, 22.3671], [114.1376, 22.3381], [114.1545, 22.3274], [114.1665, 22.3033], [114.1756, 22.2983], [114.1823, 22.3029], [114.1837, 22.3097], [114.19, 22.3183], [114.1986, 22.3226], [114.2039, 22.329], [114.2071, 22.3404], [114.187, 22.353], [114.1797, 22.3726], [114.1873, 22.379], [114.1921, 22.3834], [114.2054, 22.3983], [114.2231, 22.4055], [114.2523, 22.419], [114.2311, 22.4175], [114.2313, 22.4253], [114.2783, 22.4292]]}, "properties": {"line_code": "TML", "direction": "DT", "name": "Tuen Ma Line", "color": "#923011"}}, {"type": "Feature", "geometry": {"type": "LineString", "coordinates": [[114.1196, 22.3729], [114.1204, 22.3683], [114.131, 22.3635], [114.1232, 22.3594], [114.1254, 22.3718], [114.1376, 22.3381], [114.1483, 22.3378], [114.1561, 22.3355], [114.162, 22.3305], [114.1681, 22.3245], [114.1695, 22.3193], [114.1705, 22.3129], [114.1716, 22.305], [114.1722, 22.2973], [114.1651, 22.2793], [114.1576, 22.282]]}, "properties": {"line_code": "TWL", "direction": "DT", "name": "Tsuen Wan Line", "color": "#E60012"}}]}